{"type": "FeatureCollection", "features": [ {"type": "Feature", "properties": {"norad_id": 66547, "name": "SHIJIAN-30C", "group": "last-30-days", "lat": -40.49739595459056, "lon": -22.16270556438387, "alt_km": 516.3347143486762, "timestamp": "2025-12-02T15:49:05.949586+00:00", "meta": {"OBJECT_NAME": "SHIJIAN-30C", "OBJECT_ID": "2025-266C", "EPOCH": "2025-12-02T04:59:02.135040", "MEAN_MOTION": 15.15396644, "ECCENTRICITY": 0.00113228, "INCLINATION": 51.7988, "RA_OF_ASC_NODE": 22.215, "ARG_OF_PERICENTER": 313.9309, "MEAN_ANOMALY": 46.0732, "EPHEMERIS_TYPE": 0, "CLASSIFICATION_TYPE": "U", "NORAD_CAT_ID": 66547, "ELEMENT_SET_NO": 999, "REV_AT_EPOCH": 198, "BSTAR": 0.00076968455, "MEAN_MOTION_DOT": 0.00014457, "MEAN_MOTION_DDOT": 0}, "tle": {"line1": "1 66547U 25266C   25336.20766360  .00014457  00000+0  76968-3 0  9997", "line2": "2 66547  51.7988  22.2150 0011322 313.9309  46.0732 15.15396644  1981"}}, "geometry": {"type": "Point", "coordinates": [-22.16270556438387, -40.49739595459056]}}, {"type": "Feature", "properties": {"norad_id": 66548, "name": "CZ-2C R/B", "group": "last-30-days", "lat": -50.378458123195166, "lon": -51.17966854066651, "alt_km": 527.5789946383247, "timestamp": "2025-12-02T15:49:05.949596+00:00", "meta": {"OBJECT_NAME": "CZ-2C R/B", "OBJECT_ID": "2025-266D", "EPOCH": "2025-12-02T06:45:19.540224", "MEAN_MOTION": 15.29814822, "ECCENTRICITY": 0.0084859, "INCLINATION": 52.0549, "RA_OF_ASC_NODE": 21.093, "ARG_OF_PERICENTER": 137.47, "MEAN_ANOMALY": 223.2901, "EPHEMERIS_TYPE": 0, "CLASSIFICATION_TYPE": "U", "NORAD_CAT_ID": 66548, "ELEMENT_SET_NO": 999, "REV_AT_EPOCH": 201, "BSTAR": 0.0004562401, "MEAN_MOTION_DOT": 0.00014541, "MEAN_MOTION_DDOT": 0}, "tle": {"line1": "1 66548U 25266D   25336.28147616  .00014541  00000+0  45624-3 0  9992", "line2": "2 66548  52.0549  21.0930 0084859 137.4700 223.2901 15.29814822  2011"}}, "geometry": {"type": "Point", "coordinates": [-51.17966854066651, -50.378458123195166]}}, {"type": "Feature", "properties": {"norad_id": 66549, "name": "SHIJIAN-28", "group": "last-30-days", "lat": 9.277923421712298, "lon": -46.11479394240238, "alt_km": 19791.04101180668, "timestamp": "2025-12-02T15:49:05.949608+00:00", "meta": {"OBJECT_NAME": "SHIJIAN-28", "OBJECT_ID": "2025-277A", "EPOCH": "2025-11-30T18:06:43.124256", "MEAN_MOTION": 2.28019775, "ECCENTRICITY": 0.7300519, "INCLINATION": 14.4344, "RA_OF_ASC_NODE": 275.4056, "ARG_OF_PERICENTER": 179.5026, "MEAN_ANOMALY": 182.358, "EPHEMERIS_TYPE": 0, "CLASSIFICATION_TYPE": "U", "NORAD_CAT_ID": 66549, "ELEMENT_SET_NO": 999, "REV_AT_EPOCH": 4, "BSTAR": 0.00062085, "MEAN_MOTION_DOT": 6.315e-05, "MEAN_MOTION_DDOT": 0}, "tle": {"line1": "1 66549U 25277A   25334.75466579  .00006315  00000+0  62085-3 0  9997", "line2": "2 66549  14.4344 275.4056 7300519 179.5026 182.3580  2.28019775    48"}}, "geometry": {"type": "Point", "coordinates": [-46.11479394240238, 9.277923421712298]}}, {"type": "Feature", "properties": {"norad_id": 66550, "name": "CZ-7A R/B", "group": "last-30-days", "lat": -11.34076604911843, "lon": -136.30729584987446, "alt_km": 13952.763219845052, "timestamp": "2025-12-02T15:49:05.949620+00:00", "meta": {"OBJECT_NAME": "CZ-7A R/B", "OBJECT_ID": "2025-277B", "EPOCH": "2025-12-01T03:57:29.558880", "MEAN_MOTION": 2.40161271, "ECCENTRICITY": 0.72362879, "INCLINATION": 14.4278, "RA_OF_ASC_NODE": 275.378, "ARG_OF_PERICENTER": 178.5774, "MEAN_ANOMALY": 186.2906, "EPHEMERIS_TYPE": 0, "CLASSIFICATION_TYPE": "U", "NORAD_CAT_ID": 66550, "ELEMENT_SET_NO": 999, "REV_AT_EPOCH": 5, "BSTAR": 4.4603974e-05, "MEAN_MOTION_DOT": 0.00016399, "MEAN_MOTION_DDOT": -7.1945e-08}, "tle": {"line1": "1 66550U 25277B   25335.16492545  .00016399 -71945-7  44604-4 0  9993", "line2": "2 66550  14.4278 275.3780 7236287 178.5774 186.2906  2.40161271    57"}}, "geometry": {"type": "Point", "coordinates": [-136.30729584987446, -11.34076604911843]}}, {"type": "Feature", "properties": {"norad_id": 66554, "name": "GLOBAL-33", "group": "last-30-days", "lat": -22.13166287019816, "lon": -37.97257131612237, "alt_km": 476.44817121110646, "timestamp": "2025-12-02T15:49:05.949631+00:00", "meta": {"OBJECT_NAME": "GLOBAL-33", "OBJECT_ID": "2025-267A", "EPOCH": "2025-12-01T20:06:06.812640", "MEAN_MOTION": 15.31226532, "ECCENTRICITY": 0.00056758, "INCLINATION": 42.0184, "RA_OF_ASC_NODE": 119.9156, "ARG_OF_PERICENTER": 335.5571, "MEAN_ANOMALY": 24.4997, "EPHEMERIS_TYPE": 0, "CLASSIFICATION_TYPE": "U", "NORAD_CAT_ID": 66554, "ELEMENT_SET_NO": 999, "REV_AT_EPOCH": 173, "BSTAR": 0.00042244628, "MEAN_MOTION_DOT": 0.00012793, "MEAN_MOTION_DDOT": 0}, "tle": {"line1": "1 66554U 25267A   25335.83757885  .00012793  00000+0  42245-3 0  9998", "line2": "2 66554  42.0184 119.9156 0005675 335.5571  24.4997 15.31226532  1737"}}, "geometry": {"type": "Point", "coordinates": [-37.97257131612237, -22.13166287019816]}}, {"type": "Feature", "properties": {"norad_id": 66555, "name": "ELECTRON KICK STAGE R/B", "group": "last-30-days", "lat": -36.83008346364815, "lon": -8.606837253448356, "alt_km": 473.247290882734, "timestamp": "2025-12-02T15:49:05.949643+00:00", "meta": {"OBJECT_NAME": "ELECTRON KICK STAGE R/B", "OBJECT_ID": "2025-267B", "EPOCH": "2025-12-02T02:14:34.409184", "MEAN_MOTION": 15.32043166, "ECCENTRICITY": 0.00074806, "INCLINATION": 42.0172, "RA_OF_ASC_NODE": 118.3743, "ARG_OF_PERICENTER": 336.8276, "MEAN_ANOMALY": 23.2223, "EPHEMERIS_TYPE": 0, "CLASSIFICATION_TYPE": "U", "NORAD_CAT_ID": 66555, "ELEMENT_SET_NO": 999, "REV_AT_EPOCH": 177, "BSTAR": 0.00085113496, "MEAN_MOTION_DOT": 0.00026769, "MEAN_MOTION_DDOT": 0}, "tle": {"line1": "1 66555U 25267B   25336.09345381  .00026769  00000+0  85113-3 0  9991", "line2": "2 66555  42.0172 118.3743 0007480 336.8276  23.2223 15.32043166  1776"}}, "geometry": {"type": "Point", "coordinates": [-8.606837253448356, -36.83008346364815]}}, {"type": "Feature", "properties": {"norad_id": 66557, "name": "STARLINK-35699", "group": "last-30-days", "lat": -32.2977404472339, "lon": 138.24424828141957, "alt_km": 340.7455966367788, "timestamp": "2025-12-02T15:49:05.949655+00:00", "meta": {"OBJECT_NAME": "STARLINK-35699", "OBJECT_ID": "2025-268A", "EPOCH": "2025-12-02T06:00:02.999808", "MEAN_MOTION": 15.78384389, "ECCENTRICITY": 0.00015446, "INCLINATION": 42.9971, "RA_OF_ASC_NODE": 183.4574, "ARG_OF_PERICENTER": 273.512, "MEAN_ANOMALY": 228.7408, "EPHEMERIS_TYPE": 0, "CLASSIFICATION_TYPE": "U", "NORAD_CAT_ID": 66557, "ELEMENT_SET_NO": 999, "REV_AT_EPOCH": 298, "BSTAR": -0.0098624797, "MEAN_MOTION_DOT": -0.01542027, "MEAN_MOTION_DDOT": 0}, "tle": {"line1": "1 66557U 25268A   25336.25003472 -.01542027  00000+0 -98625-2 0  9998", "line2": "2 66557  42.9971 183.4574 0001544 273.5120 228.7408 15.78384389  2985"}}, "geometry": {"type": "Point", "coordinates": [138.24424828141957, -32.2977404472339]}}, {"type": "Feature", "properties": {"norad_id": 66558, "name": "STARLINK-35695", "group": "last-30-days", "lat": -31.30233258566279, "lon": 140.22180597300488, "alt_km": 340.7323136123623, "timestamp": "2025-12-02T15:49:05.949667+00:00", "meta": {"OBJECT_NAME": "STARLINK-35695", "OBJECT_ID": "2025-268B", "EPOCH": "2025-12-02T06:00:02.999808", "MEAN_MOTION": 15.78375301, "ECCENTRICITY": 0.00015837, "INCLINATION": 42.9973, "RA_OF_ASC_NODE": 183.4525, "ARG_OF_PERICENTER": 273.1852, "MEAN_ANOMALY": 231.0434, "EPHEMERIS_TYPE": 0, "CLASSIFICATION_TYPE": "U", "NORAD_CAT_ID": 66558, "ELEMENT_SET_NO": 999, "REV_AT_EPOCH": 298, "BSTAR": -0.0099065794, "MEAN_MOTION_DOT": -0.01547524, "MEAN_MOTION_DDOT": 0}, "tle": {"line1": "1 66558U 25268B   25336.25003472 -.01547524  00000+0 -99066-2 0  9996", "line2": "2 66558  42.9973 183.4525 0001583 273.1852 231.0434 15.78375301  2985"}}, "geometry": {"type": "Point", "coordinates": [140.22180597300488, -31.30233258566279]}}, {"type": "Feature", "properties": {"norad_id": 66559, "name": "STARLINK-35419", "group": "last-30-days", "lat": -30.24639021193466, "lon": 142.21315671649597, "alt_km": 340.7673701349622, "timestamp": "2025-12-02T15:49:05.949677+00:00", "meta": {"OBJECT_NAME": "STARLINK-35419", "OBJECT_ID": "2025-268C", "EPOCH": "2025-12-02T06:00:02.999808", "MEAN_MOTION": 15.78344543, "ECCENTRICITY": 0.00016624, "INCLINATION": 42.997, "RA_OF_ASC_NODE": 183.4475, "ARG_OF_PERICENTER": 273.1511, "MEAN_ANOMALY": 233.1468, "EPHEMERIS_TYPE": 0, "CLASSIFICATION_TYPE": "U", "NORAD_CAT_ID": 66559, "ELEMENT_SET_NO": 999, "REV_AT_EPOCH": 298, "BSTAR": -0.010004785, "MEAN_MOTION_DOT": -0.01559067, "MEAN_MOTION_DDOT": 0}, "tle": {"line1": "1 66559U 25268C   25336.25003472 -.01559067  00000+0 -10005-1 0  9997", "line2": "2 66559  42.9970 183.4475 0001662 273.1511 233.1468 15.78344543  2981"}}, "geometry": {"type": "Point", "coordinates": [142.21315671649597, -30.24639021193466]}}, {"type": "Feature", "properties": {"norad_id": 66560, "name": "STARLINK-35411", "group": "last-30-days", "lat": -29.184826933452758, "lon": 144.12016807309942, "alt_km": 340.8209430693996, "timestamp": "2025-12-02T15:49:05.949687+00:00", "meta": {"OBJECT_NAME": "STARLINK-35411", "OBJECT_ID": "2025-268D", "EPOCH": "2025-12-02T06:00:02.999808", "MEAN_MOTION": 15.78332659, "ECCENTRICITY": 0.00015868, "INCLINATION": 42.9973, "RA_OF_ASC_NODE": 183.4425, "ARG_OF_PERICENTER": 273.6926, "MEAN_ANOMALY": 234.6032, "EPHEMERIS_TYPE": 0, "CLASSIFICATION_TYPE": "U", "NORAD_CAT_ID": 66560, "ELEMENT_SET_NO": 999, "REV_AT_EPOCH": 298, "BSTAR": -0.010080725, "MEAN_MOTION_DOT": -0.01568589, "MEAN_MOTION_DDOT": 0}, "tle": {"line1": "1 66560U 25268D   25336.25003472 -.01568589  00000+0 -10081-1 0  9992", "line2": "2 66560  42.9973 183.4425 0001586 273.6926 234.6032 15.78332659  2989"}}, "geometry": {"type": "Point", "coordinates": [144.12016807309942, -29.184826933452758]}}]}